start=new Date('2023-02-15T00:00:00.000Z').valueOf();
sats=[{"SEMIMAJOR_AXIS":"6917.839","APOAPSIS":"540.580","MEAN_ANOMALY":"278.5910","TLE_LINE2":"2 51772  53.2172 323.4685 0001266  81.5226 278.5910 15.08853404 53631","REV_AT_EPOCH":"5363","EPOCH":"2023-02-14T11:26:04.327008","NORAD_CAT_ID":"51772","OBJECT_ID":"2022-017E","MEAN_MOTION_DOT":"0.00027436","MEAN_MOTION":"15.08853404","RCS_SIZE":"LARGE","GP_ID":"225394129","LAUNCH_DATE":"2022-02-25","RA_OF_ASC_NODE":"323.4685","SITE":"AFWTR","BSTAR":"0.00173460000000","FILE":"3791349","ECCENTRICITY":"0.00012660","ELEMENT_SET_NO":"999","ARG_OF_PERICENTER":"81.5226","REF_FRAME":"TEME","OBJECT_NAME":"STARLINK-3623","CENTER_NAME":"EARTH","TLE_LINE1":"1 51772U 22017E   23045.47643897  .00027436  00000-0  17346-2 0  9991","CLASSIFICATION_TYPE":"U","OBJECT_TYPE":"PAYLOAD","MEAN_MOTION_DDOT":"0.0000000000000","PERIOD":"95.437","MEAN_ELEMENT_THEORY":"SGP4","DECAY_DATE":null,"TIME_SYSTEM":"UTC","COUNTRY_CODE":"US","PERIAPSIS":"538.829","INCLINATION":"53.2172","EPHEMERIS_TYPE":"0"},{"DECAY_DATE":null,"MEAN_ELEMENT_THEORY":"SGP4","PERIOD":"95.437","MEAN_MOTION_DDOT":"0.0000000000000","OBJECT_TYPE":"PAYLOAD","TLE_LINE1":"1 51773U 22017F   23045.48379742  .00019214  00000-0  12216-2 0  9994","CLASSIFICATION_TYPE":"U","REF_FRAME":"TEME","OBJECT_NAME":"STARLINK-3624","CENTER_NAME":"EARTH","EPHEMERIS_TYPE":"0","INCLINATION":"53.2169","COUNTRY_CODE":"US","PERIAPSIS":"538.277","TIME_SYSTEM":"UTC","OBJECT_ID":"2022-017F","MEAN_MOTION_DOT":"0.00019214","NORAD_CAT_ID":"51773","EPOCH":"2023-02-14T11:36:40.097088","TLE_LINE2":"2 51773  53.2169 323.4273 0002070  74.4010 285.7210 15.08851985 53643","REV_AT_EPOCH":"5364","APOAPSIS":"541.141","MEAN_ANOMALY":"285.7210","SEMIMAJOR_AXIS":"6917.844","ELEMENT_SET_NO":"999","ARG_OF_PERICENTER":"74.4010","ECCENTRICITY":"0.00020700","FILE":"3791349","BSTAR":"0.00122160000000","SITE":"AFWTR","RA_OF_ASC_NODE":"323.4273","LAUNCH_DATE":"2022-02-25","MEAN_MOTION":"15.08851985","GP_ID":"225394374","RCS_SIZE":"LARGE"},{"BSTAR":"0.00150080000000","FILE":"3791349","ECCENTRICITY":"0.00020930","ARG_OF_PERICENTER":"70.3929","ELEMENT_SET_NO":"999","GP_ID":"225393129","RCS_SIZE":"LARGE","MEAN_MOTION":"15.08850183","LAUNCH_DATE":"2022-02-25","RA_OF_ASC_NODE":"323.4964","SITE":"AFWTR","NORAD_CAT_ID":"51774","EPOCH":"2023-02-14T11:15:27.529632","MEAN_MOTION_DOT":"0.00023685","OBJECT_ID":"2022-017G","SEMIMAJOR_AXIS":"6917.849","MEAN_ANOMALY":"289.7289","APOAPSIS":"541.162","TLE_LINE2":"2 51774  53.2186 323.4964 0002093  70.3929 289.7289 15.08850183 53604","REV_AT_EPOCH":"5360","INCLINATION":"53.2186","EPHEMERIS_TYPE":"0","TIME_SYSTEM":"UTC","PERIAPSIS":"538.266","COUNTRY_CODE":"US","MEAN_MOTION_DDOT":"0.0000000000000","OBJECT_TYPE":"PAYLOAD","PERIOD":"95.437","MEAN_ELEMENT_THEORY":"SGP4","DECAY_DATE":null,"OBJECT_NAME":"STARLINK-3629","CENTER_NAME":"EARTH","REF_FRAME":"TEME","CLASSIFICATION_TYPE":"U","TLE_LINE1":"1 51774U 22017G   23045.46906863  .00023685  00000-0  15008-2 0  9992"},{"REF_FRAME":"TEME","OBJECT_NAME":"STARLINK-3620","CENTER_NAME":"EARTH","TLE_LINE1":"1 51775U 22017H   23045.48013889  .00010052  00000-0  64876-3 0  9994","CLASSIFICATION_TYPE":"U","OBJECT_TYPE":"PAYLOAD","MEAN_MOTION_DDOT":"0.0000000000000","PERIOD":"95.438","MEAN_ELEMENT_THEORY":"SGP4","DECAY_DATE":null,"TIME_SYSTEM":"UTC","COUNTRY_CODE":"US","PERIAPSIS":"538.801","INCLINATION":"53.2164","EPHEMERIS_TYPE":"0","SEMIMAJOR_AXIS":"6917.884","APOAPSIS":"540.697","MEAN_ANOMALY":"273.4507","TLE_LINE2":"2 51775  53.2164 323.4517 0001371  86.6642 273.4507 15.08838835 53642","REV_AT_EPOCH":"5364","EPOCH":"2023-02-14T11:31:24.000096","NORAD_CAT_ID":"51775","OBJECT_ID":"2022-017H","MEAN_MOTION_DOT":"0.00010052","MEAN_MOTION":"15.08838835","GP_ID":"225393379","RCS_SIZE":"LARGE","LAUNCH_DATE":"2022-02-25","RA_OF_ASC_NODE":"323.4517","SITE":"AFWTR","BSTAR":"0.00064876000000","FILE":"3791349","ECCENTRICITY":"0.00013710","ELEMENT_SET_NO":"999","ARG_OF_PERICENTER":"86.6642"},{"RA_OF_ASC_NODE":"325.3068","SITE":"AFWTR","RCS_SIZE":"LARGE","GP_ID":"225393629","MEAN_MOTION":"15.08827061","LAUNCH_DATE":"2022-02-25","ECCENTRICITY":"0.00013330","ARG_OF_PERICENTER":"47.1679","ELEMENT_SET_NO":"999","BSTAR":"0.00000161650000","FILE":"3791349","TLE_LINE2":"2 51776  53.2152 325.3068 0001333  47.1679 312.9425 15.08827061 53548","REV_AT_EPOCH":"5354","SEMIMAJOR_AXIS":"6917.920","MEAN_ANOMALY":"312.9425","APOAPSIS":"540.707","OBJECT_ID":"2022-017J","MEAN_MOTION_DOT":"-0.00000262","EPOCH":"2023-02-14T01:37:52.046400","NORAD_CAT_ID":"51776","TIME_SYSTEM":"UTC","PERIAPSIS":"538.863","COUNTRY_CODE":"US","EPHEMERIS_TYPE":"0","INCLINATION":"53.2152","CLASSIFICATION_TYPE":"U","TLE_LINE1":"1 51776U 22017J   23045.06796350 -.00000262  00000-0  16165-5 0  9993","CENTER_NAME":"EARTH","OBJECT_NAME":"STARLINK-3608","REF_FRAME":"TEME","MEAN_ELEMENT_THEORY":"SGP4","DECAY_DATE":null,"MEAN_MOTION_DDOT":"0.0000000000000","OBJECT_TYPE":"PAYLOAD","PERIOD":"95.438"},{"OBJECT_NAME":"STARLINK-3625","REF_FRAME":"TEME","CENTER_NAME":"EARTH","CLASSIFICATION_TYPE":"U","TLE_LINE1":"1 51777U 22017K   23045.66667824  .00084086  00000-0  51269-2 0  9999","PERIOD":"95.388","MEAN_MOTION_DDOT":"0.0000000000000","OBJECT_TYPE":"PAYLOAD","DECAY_DATE":null,"MEAN_ELEMENT_THEORY":"SGP4","PERIAPSIS":"536.570","COUNTRY_CODE":"US","TIME_SYSTEM":"UTC","INCLINATION":"53.2149","EPHEMERIS_TYPE":"0","MEAN_ANOMALY":"250.0600","APOAPSIS":"538.093","SEMIMAJOR_AXIS":"6915.466","REV_AT_EPOCH":"130","TLE_LINE2":"2 51777  53.2149 322.5931 0001101  93.5073 250.0600 15.09630113  1304","EPOCH":"2023-02-14T16:00:00.999936","NORAD_CAT_ID":"51777","MEAN_MOTION_DOT":"0.00084086","OBJECT_ID":"2022-017K","LAUNCH_DATE":"2022-02-25","RCS_SIZE":"LARGE","GP_ID":"225433242","MEAN_MOTION":"15.09630113","RA_OF_ASC_NODE":"322.5931","SITE":"AFWTR","FILE":"3792084","BSTAR":"0.00512690000000","ARG_OF_PERICENTER":"93.5073","ELEMENT_SET_NO":"999","ECCENTRICITY":"0.00011010"},{"NORAD_CAT_ID":"51778","EPOCH":"2023-02-14T11:26:19.316544","OBJECT_ID":"2022-017L","MEAN_MOTION_DOT":"0.00020779","APOAPSIS":"536.411","MEAN_ANOMALY":"283.3115","SEMIMAJOR_AXIS":"6912.853","REV_AT_EPOCH":"5359","TLE_LINE2":"2 51778  53.2156 313.3667 0002449  76.8151 283.3115 15.10486143 53596","FILE":"3791349","BSTAR":"0.00126170000000","ELEMENT_SET_NO":"999","ARG_OF_PERICENTER":"76.8151","ECCENTRICITY":"0.00024490","LAUNCH_DATE":"2022-02-25","MEAN_MOTION":"15.10486143","GP_ID":"225392630","RCS_SIZE":"LARGE","SITE":"AFWTR","RA_OF_ASC_NODE":"313.3667","PERIOD":"95.334","OBJECT_TYPE":"PAYLOAD","MEAN_MOTION_DDOT":"0.0000000000000","DECAY_DATE":null,"MEAN_ELEMENT_THEORY":"SGP4","CENTER_NAME":"EARTH","OBJECT_NAME":"STARLINK-3615","REF_FRAME":"TEME","TLE_LINE1":"1 51778U 22017L   23045.47661246  .00020779  00000-0  12617-2 0  9994","CLASSIFICATION_TYPE":"U","INCLINATION":"53.2156","EPHEMERIS_TYPE":"0","COUNTRY_CODE":"US","PERIAPSIS":"533.025","TIME_SYSTEM":"UTC"},{"FILE":"3791349","BSTAR":"0.00029903000000","ELEMENT_SET_NO":"999","ARG_OF_PERICENTER":"78.2664","ECCENTRICITY":"0.00021750","LAUNCH_DATE":"2022-02-25","MEAN_MOTION":"15.08837227","RCS_SIZE":"LARGE","GP_ID":"225392880","SITE":"AFWTR","RA_OF_ASC_NODE":"323.5361","NORAD_CAT_ID":"51779","EPOCH":"2023-02-14T11:04:52.435200","MEAN_MOTION_DOT":"0.00004474","OBJECT_ID":"2022-017M","APOAPSIS":"541.259","MEAN_ANOMALY":"281.8572","SEMIMAJOR_AXIS":"6917.889","REV_AT_EPOCH":"5360","TLE_LINE2":"2 51779  53.2163 323.5361 0002175  78.2664 281.8572 15.08837227 53602","INCLINATION":"53.2163","EPHEMERIS_TYPE":"0","COUNTRY_CODE":"US","PERIAPSIS":"538.249","TIME_SYSTEM":"UTC","PERIOD":"95.438","MEAN_MOTION_DDOT":"0.0000000000000","OBJECT_TYPE":"PAYLOAD","DECAY_DATE":null,"MEAN_ELEMENT_THEORY":"SGP4","CENTER_NAME":"EARTH","REF_FRAME":"TEME","OBJECT_NAME":"STARLINK-3611","TLE_LINE1":"1 51779U 22017M   23045.46171800  .00004474  00000-0  29903-3 0  9997","CLASSIFICATION_TYPE":"U"},{"MEAN_ELEMENT_THEORY":"SGP4","DECAY_DATE":null,"OBJECT_TYPE":"PAYLOAD","MEAN_MOTION_DDOT":"0.0000000000000","PERIOD":"95.438","CLASSIFICATION_TYPE":"U","TLE_LINE1":"1 51780U 22017N   23045.91531538  .00018694  00000-0  11898-2 0  9999","OBJECT_NAME":"STARLINK-3617","REF_FRAME":"TEME","CENTER_NAME":"EARTH","EPHEMERIS_TYPE":"0","INCLINATION":"53.2153","TIME_SYSTEM":"UTC","PERIAPSIS":"539.031","COUNTRY_CODE":"US","MEAN_MOTION_DOT":"0.00018694","OBJECT_ID":"2022-017N","NORAD_CAT_ID":"51780","EPOCH":"2023-02-14T21:58:03.248832","TLE_LINE2":"2 51780  53.2153 321.4993 0001068  98.6559 261.4554 15.08831978 53522","REV_AT_EPOCH":"5352","SEMIMAJOR_AXIS":"6917.905","MEAN_ANOMALY":"261.4554","APOAPSIS":"540.509","ECCENTRICITY":"0.00010680","ARG_OF_PERICENTER":"98.6559","ELEMENT_SET_NO":"999","BSTAR":"0.00118980000000","FILE":"3792084","SITE":"AFWTR","RA_OF_ASC_NODE":"321.4993","RCS_SIZE":"LARGE","GP_ID":"225433492","MEAN_MOTION":"15.08831978","LAUNCH_DATE":"2022-02-25"},{"TLE_LINE2":"2 51781  53.2172 323.5501 0001783  80.0446 280.0748 15.08840828 53454","REV_AT_EPOCH":"5345","MEAN_ANOMALY":"280.0748","APOAPSIS":"540.976","SEMIMAJOR_AXIS":"6917.878","MEAN_MOTION_DOT":"0.00001744","OBJECT_ID":"2022-017P","NORAD_CAT_ID":"51781","EPOCH":"2023-02-14T10:59:34.690560","SITE":"AFWTR","RA_OF_ASC_NODE":"323.5501","LAUNCH_DATE":"2022-02-25","GP_ID":"225394375","RCS_SIZE":"LARGE","MEAN_MOTION":"15.08840828","ARG_OF_PERICENTER":"80.0446","ELEMENT_SET_NO":"999","ECCENTRICITY":"0.00017830","FILE":"3791349","BSTAR":"0.00012765000000","CLASSIFICATION_TYPE":"U","TLE_LINE1":"1 51781U 22017P   23045.45804040  .00001744  00000-0  12765-3 0  9993","CENTER_NAME":"EARTH","OBJECT_NAME":"STARLINK-3580","REF_FRAME":"TEME","DECAY_DATE":null,"MEAN_ELEMENT_THEORY":"SGP4","PERIOD":"95.438","MEAN_MOTION_DDOT":"0.0000000000000","OBJECT_TYPE":"PAYLOAD","PERIAPSIS":"538.509","COUNTRY_CODE":"US","TIME_SYSTEM":"UTC","EPHEMERIS_TYPE":"0","INCLINATION":"53.2172"}];
